[{"OBJECT_NAME":"OBJECT C","OBJECT_ID":"2023-104C","EPOCH":"2026-03-09T22:39:44.230752","MEAN_MOTION":15.26846312,"ECCENTRICITY":0.00113074,"INCLINATION":97.273,"RA_OF_ASC_NODE":135.3333,"ARG_OF_PERICENTER":3.876,"MEAN_ANOMALY":356.2565,"EPHEMERIS_TYPE":0,"CLASSIFICATION_TYPE":"U","NORAD_CAT_ID":57426,"ELEMENT_SET_NO":999,"REV_AT_EPOCH":14663,"BSTAR":0.00062618506,"MEAN_MOTION_DOT":0.00016495,"MEAN_MOTION_DDOT":0},{"OBJECT_NAME":"STARLINK-32485","OBJECT_ID":"2024-224E","EPOCH":"2026-03-09T22:53:03.221664","MEAN_MOTION":15.27573383,"ECCENTRICITY":9.87e-5,"INCLINATION":42.9999,"RA_OF_ASC_NODE":159.7967,"ARG_OF_PERICENTER":285.9967,"MEAN_ANOMALY":74.0775,"EPHEMERIS_TYPE":0,"CLASSIFICATION_TYPE":"U","NORAD_CAT_ID":62143,"ELEMENT_SET_NO":999,"REV_AT_EPOCH":7205,"BSTAR":0.000941515,"MEAN_MOTION_DOT":0.00025731,"MEAN_MOTION_DDOT":0}]
